[
  {
    "OBJECT_NAME": "STARLINK-32499",
    "OBJECT_ID": "24210A",
    "EPOCH": "2025-11-11T04:52:22.324224",
    "MEAN_MOTION": 15.27562562,
    "ECCENTRICITY": 0.0001345,
    "INCLINATION": 42.9954,
    "RA_OF_ASC_NODE": 128.5791,
    "ARG_OF_PERICENTER": 68.4027,
    "MEAN_ANOMALY": 291.6968,
    "EPHEMERIS_TYPE": 0,
    "CLASSIFICATION_TYPE": "U",
    "NORAD_CAT_ID": 61959,
    "ELEMENT_SET_NO": 999,
    "REV_AT_EPOCH": 5680,
    "BSTAR": 0.0011734,
    "MEAN_MOTION_DOT": 0.00032152,
    "MEAN_MOTION_DDOT": 0.0,
    "TLE_LINE1": "1 61959U 24210A   25315.20303616  .00032152  00000+0  11734-2 0  9996",
    "TLE_LINE2": "2 61959  42.9954 128.5791 0001345  68.4027 291.6968 15.27562562 56809",
    "COMMENT": "Grouped by shell and plane from TLE"
  },
  {
    "OBJECT_NAME": "STARLINK-32452",
    "OBJECT_ID": "24210C",
    "EPOCH": "2025-11-11T03:43:39.429408",
    "MEAN_MOTION": 15.27600671,
    "ECCENTRICITY": 9.81e-05,
    "INCLINATION": 42.994,
    "RA_OF_ASC_NODE": 122.1542,
    "ARG_OF_PERICENTER": 281.2164,
    "MEAN_ANOMALY": 78.8577,
    "EPHEMERIS_TYPE": 0,
    "CLASSIFICATION_TYPE": "U",
    "NORAD_CAT_ID": 61961,
    "ELEMENT_SET_NO": 999,
    "REV_AT_EPOCH": 5686,
    "BSTAR": 0.00018601999999999998,
    "MEAN_MOTION_DOT": 4.864e-05,
    "MEAN_MOTION_DDOT": 0.0,
    "TLE_LINE1": "1 61961U 24210C   25315.15531747  .00004864  00000+0  18602-3 0  9992",
    "TLE_LINE2": "2 61961  42.9940 122.1542 0000981 281.2164  78.8577 15.27600671 56864",
    "COMMENT": "Grouped by shell and plane from TLE"
  },
  {
    "OBJECT_NAME": "STARLINK-32487",
    "OBJECT_ID": "24210E",
    "EPOCH": "2025-11-11T04:11:53.673792",
    "MEAN_MOTION": 15.27598012,
    "ECCENTRICITY": 5.13e-05,
    "INCLINATION": 42.9972,
    "RA_OF_ASC_NODE": 129.2179,
    "ARG_OF_PERICENTER": 305.5264,
    "MEAN_ANOMALY": 54.554,
    "EPHEMERIS_TYPE": 0,
    "CLASSIFICATION_TYPE": "U",
    "NORAD_CAT_ID": 61963,
    "ELEMENT_SET_NO": 999,
    "REV_AT_EPOCH": 5678,
    "BSTAR": 0.0014579,
    "MEAN_MOTION_DOT": 0.00040096,
    "MEAN_MOTION_DDOT": 0.0,
    "TLE_LINE1": "1 61963U 24210E   25315.17492678  .00040096  00000+0  14579-2 0  9990",
    "TLE_LINE2": "2 61963  42.9972 129.2179 0000513 305.5264  54.5540 15.27598012 56784",
    "COMMENT": "Grouped by shell and plane from TLE"
  },
  {
    "OBJECT_NAME": "STARLINK-32514",
    "OBJECT_ID": "24210G",
    "EPOCH": "2025-11-10T18:24:16.761024",
    "MEAN_MOTION": 15.27592444,
    "ECCENTRICITY": 0.000228,
    "INCLINATION": 42.9993,
    "RA_OF_ASC_NODE": 124.3979,
    "ARG_OF_PERICENTER": 273.3715,
    "MEAN_ANOMALY": 86.6876,
    "EPHEMERIS_TYPE": 0,
    "CLASSIFICATION_TYPE": "U",
    "NORAD_CAT_ID": 61965,
    "ELEMENT_SET_NO": 999,
    "REV_AT_EPOCH": 5680,
    "BSTAR": 0.0014180000000000002,
    "MEAN_MOTION_DOT": 0.0003898,
    "MEAN_MOTION_DDOT": 0.0,
    "TLE_LINE1": "1 61965U 24210G   25314.76686066  .00038980  00000+0  14180-2 0  9999",
    "TLE_LINE2": "2 61965  42.9993 124.3979 0002280 273.3715  86.6876 15.27592444 56803",
    "COMMENT": "Grouped by shell and plane from TLE"
  },
  {
    "OBJECT_NAME": "STARLINK-32518",
    "OBJECT_ID": "24210J",
    "EPOCH": "2025-11-10T20:35:23.122464",
    "MEAN_MOTION": 15.27617665,
    "ECCENTRICITY": 0.000207,
    "INCLINATION": 43.0048,
    "RA_OF_ASC_NODE": 124.0333,
    "ARG_OF_PERICENTER": 276.1742,
    "MEAN_ANOMALY": 83.8874,
    "EPHEMERIS_TYPE": 0,
    "CLASSIFICATION_TYPE": "U",
    "NORAD_CAT_ID": 61967,
    "ELEMENT_SET_NO": 999,
    "REV_AT_EPOCH": 5668,
    "BSTAR": 0.0012363,
    "MEAN_MOTION_DOT": 0.00033956,
    "MEAN_MOTION_DDOT": 0.0,
    "TLE_LINE1": "1 61967U 24210J   25314.85790651  .00033956  00000+0  12363-2 0  9996",
    "TLE_LINE2": "2 61967  43.0048 124.0333 0002070 276.1742  83.8874 15.27617665 56683",
    "COMMENT": "Grouped by shell and plane from TLE"
  },
  {
    "OBJECT_NAME": "STARLINK-32471",
    "OBJECT_ID": "24210K",
    "EPOCH": "2025-11-10T11:52:51.169152",
    "MEAN_MOTION": 15.27616523,
    "ECCENTRICITY": 0.0004481,
    "INCLINATION": 43.0014,
    "RA_OF_ASC_NODE": 125.7984,
    "ARG_OF_PERICENTER": 282.9009,
    "MEAN_ANOMALY": 77.1342,
    "EPHEMERIS_TYPE": 0,
    "CLASSIFICATION_TYPE": "U",
    "NORAD_CAT_ID": 61968,
    "ELEMENT_SET_NO": 999,
    "REV_AT_EPOCH": 5677,
    "BSTAR": 0.0013250999999999998,
    "MEAN_MOTION_DOT": 0.0003643,
    "MEAN_MOTION_DDOT": 0.0,
    "TLE_LINE1": "1 61968U 24210K   25314.49503668  .00036430  00000+0  13251-2 0  9994",
    "TLE_LINE2": "2 61968  43.0014 125.7984 0004481 282.9009  77.1342 15.27616523 56774",
    "COMMENT": "Grouped by shell and plane from TLE"
  },
  {
    "OBJECT_NAME": "STARLINK-32450",
    "OBJECT_ID": "24210L",
    "EPOCH": "2025-11-11T03:39:59.826528",
    "MEAN_MOTION": 15.27575668,
    "ECCENTRICITY": 0.000134,
    "INCLINATION": 42.9997,
    "RA_OF_ASC_NODE": 122.1347,
    "ARG_OF_PERICENTER": 278.4732,
    "MEAN_ANOMALY": 81.5967,
    "EPHEMERIS_TYPE": 0,
    "CLASSIFICATION_TYPE": "U",
    "NORAD_CAT_ID": 61969,
    "ELEMENT_SET_NO": 999,
    "REV_AT_EPOCH": 5673,
    "BSTAR": 0.00097431,
    "MEAN_MOTION_DOT": 0.00026642,
    "MEAN_MOTION_DDOT": 0.0,
    "TLE_LINE1": "1 61969U 24210L   25315.15277577  .00026642  00000+0  97431-3 0  9993",
    "TLE_LINE2": "2 61969  42.9997 122.1347 0001340 278.4732  81.5967 15.27575668 56733",
    "COMMENT": "Grouped by shell and plane from TLE"
  },
  {
    "OBJECT_NAME": "STARLINK-32610",
    "OBJECT_ID": "24210N",
    "EPOCH": "2025-11-11T04:26:40.656192",
    "MEAN_MOTION": 15.27594354,
    "ECCENTRICITY": 0.0001062,
    "INCLINATION": 42.9985,
    "RA_OF_ASC_NODE": 129.2962,
    "ARG_OF_PERICENTER": 279.7342,
    "MEAN_ANOMALY": 80.339,
    "EPHEMERIS_TYPE": 0,
    "CLASSIFICATION_TYPE": "U",
    "NORAD_CAT_ID": 61971,
    "ELEMENT_SET_NO": 999,
    "REV_AT_EPOCH": 5679,
    "BSTAR": 0.0016647,
    "MEAN_MOTION_DOT": 0.00045853,
    "MEAN_MOTION_DDOT": 0.0,
    "TLE_LINE1": "1 61971U 24210N   25315.18519278  .00045853  00000+0  16647-2 0  9990",
    "TLE_LINE2": "2 61971  42.9985 129.2962 0001062 279.7342  80.3390 15.27594354 56792",
    "COMMENT": "Grouped by shell and plane from TLE"
  },
  {
    "OBJECT_NAME": "STARLINK-32612",
    "OBJECT_ID": "24210P",
    "EPOCH": "2025-11-11T04:32:13.420608",
    "MEAN_MOTION": 15.27608635,
    "ECCENTRICITY": 7.09e-05,
    "INCLINATION": 43.0017,
    "RA_OF_ASC_NODE": 129.324,
    "ARG_OF_PERICENTER": 286.5172,
    "MEAN_ANOMALY": 73.5602,
    "EPHEMERIS_TYPE": 0,
    "CLASSIFICATION_TYPE": "U",
    "NORAD_CAT_ID": 61972,
    "ELEMENT_SET_NO": 999,
    "REV_AT_EPOCH": 5675,
    "BSTAR": 0.0013331,
    "MEAN_MOTION_DOT": 0.00036635,
    "MEAN_MOTION_DDOT": 0.0,
    "TLE_LINE1": "1 61972U 24210P   25315.18904422  .00036635  00000+0  13331-2 0  9995",
    "TLE_LINE2": "2 61972  43.0017 129.3240 0000709 286.5172  73.5602 15.27608635 56759",
    "COMMENT": "Grouped by shell and plane from TLE"
  },
  {
    "OBJECT_NAME": "STARLINK-32601",
    "OBJECT_ID": "24210Q",
    "EPOCH": "2025-11-11T04:57:55.577664",
    "MEAN_MOTION": 15.27577213,
    "ECCENTRICITY": 0.0001636,
    "INCLINATION": 43.0043,
    "RA_OF_ASC_NODE": 128.6038,
    "ARG_OF_PERICENTER": 268.8543,
    "MEAN_ANOMALY": 91.2122,
    "EPHEMERIS_TYPE": 0,
    "CLASSIFICATION_TYPE": "U",
    "NORAD_CAT_ID": 61973,
    "ELEMENT_SET_NO": 999,
    "REV_AT_EPOCH": 5676,
    "BSTAR": 0.0010566,
    "MEAN_MOTION_DOT": 0.00028924,
    "MEAN_MOTION_DDOT": 0.0,
    "TLE_LINE1": "1 61973U 24210Q   25315.20689326  .00028924  00000+0  10566-2 0  9991",
    "TLE_LINE2": "2 61973  43.0043 128.6038 0001636 268.8543  91.2122 15.27577213 56763",
    "COMMENT": "Grouped by shell and plane from TLE"
  },
  {
    "OBJECT_NAME": "STARLINK-32607",
    "OBJECT_ID": "24210U",
    "EPOCH": "2025-11-11T04:21:08.520768",
    "MEAN_MOTION": 15.27595995,
    "ECCENTRICITY": 0.0001106,
    "INCLINATION": 42.9991,
    "RA_OF_ASC_NODE": 129.2661,
    "ARG_OF_PERICENTER": 271.316,
    "MEAN_ANOMALY": 88.7565,
    "EPHEMERIS_TYPE": 0,
    "CLASSIFICATION_TYPE": "U",
    "NORAD_CAT_ID": 61977,
    "ELEMENT_SET_NO": 999,
    "REV_AT_EPOCH": 5679,
    "BSTAR": 0.0018415,
    "MEAN_MOTION_DOT": 0.00050788,
    "MEAN_MOTION_DDOT": 0.0,
    "TLE_LINE1": "1 61977U 24210U   25315.18134862  .00050788  00000+0  18415-2 0  9996",
    "TLE_LINE2": "2 61977  42.9991 129.2661 0001106 271.3160  88.7565 15.27595995 56794",
    "COMMENT": "Grouped by shell and plane from TLE"
  },
  {
    "OBJECT_NAME": "STARLINK-32578",
    "OBJECT_ID": "24210W",
    "EPOCH": "2025-11-11T05:14:34.520640",
    "MEAN_MOTION": 15.27578901,
    "ECCENTRICITY": 8.62e-05,
    "INCLINATION": 43.0015,
    "RA_OF_ASC_NODE": 128.682,
    "ARG_OF_PERICENTER": 263.6307,
    "MEAN_ANOMALY": 96.4447,
    "EPHEMERIS_TYPE": 0,
    "CLASSIFICATION_TYPE": "U",
    "NORAD_CAT_ID": 61979,
    "ELEMENT_SET_NO": 999,
    "REV_AT_EPOCH": 5680,
    "BSTAR": 0.0016771,
    "MEAN_MOTION_DOT": 0.00046176,
    "MEAN_MOTION_DDOT": 0.0,
    "TLE_LINE1": "1 61979U 24210W   25315.21845510  .00046176  00000+0  16771-2 0  9990",
    "TLE_LINE2": "2 61979  43.0015 128.6820 0000862 263.6307  96.4447 15.27578901 56805",
    "COMMENT": "Grouped by shell and plane from TLE"
  },
  {
    "OBJECT_NAME": "STARLINK-32560",
    "OBJECT_ID": "24210Z",
    "EPOCH": "2025-11-11T05:09:01.475424",
    "MEAN_MOTION": 15.27584512,
    "ECCENTRICITY": 8.36e-05,
    "INCLINATION": 43.0027,
    "RA_OF_ASC_NODE": 128.6545,
    "ARG_OF_PERICENTER": 311.9779,
    "MEAN_ANOMALY": 48.1001,
    "EPHEMERIS_TYPE": 0,
    "CLASSIFICATION_TYPE": "U",
    "NORAD_CAT_ID": 61982,
    "ELEMENT_SET_NO": 999,
    "REV_AT_EPOCH": 5676,
    "BSTAR": 0.001164,
    "MEAN_MOTION_DOT": 0.00031913,
    "MEAN_MOTION_DDOT": 0.0,
    "TLE_LINE1": "1 61982U 24210Z   25315.21460041  .00031913  00000+0  11640-2 0  9999",
    "TLE_LINE2": "2 61982  43.0027 128.6545 0000836 311.9779  48.1001 15.27584512 56767",
    "COMMENT": "Grouped by shell and plane from TLE"
  }
]